[{"OBJECT_NAME":"STARLINK-30912","OBJECT_ID":"2023-180W","EPOCH":"2025-10-18T12:18:29.383776","MEAN_MOTION":15.27560097,"ECCENTRICITY":0.00010115,"INCLINATION":43.0008,"RA_OF_ASC_NODE":353.2392,"ARG_OF_PERICENTER":263.6638,"MEAN_ANOMALY":96.4099,"EPHEMERIS_TYPE":0,"CLASSIFICATION_TYPE":"U","NORAD_CAT_ID":58422,"ELEMENT_SET_NO":999,"REV_AT_EPOCH":10755,"BSTAR":1.9917096e-5,"MEAN_MOTION_DOT":2.86e-6,"MEAN_MOTION_DDOT":0},{"OBJECT_NAME":"STARLINK-30900","OBJECT_ID":"2023-180X","EPOCH":"2025-10-19T05:10:01.076736","MEAN_MOTION":15.02542668,"ECCENTRICITY":0.00014025,"INCLINATION":43.0023,"RA_OF_ASC_NODE":104.709,"ARG_OF_PERICENTER":265.8618,"MEAN_ANOMALY":94.2064,"EPHEMERIS_TYPE":0,"CLASSIFICATION_TYPE":"U","NORAD_CAT_ID":58423,"ELEMENT_SET_NO":999,"REV_AT_EPOCH":10619,"BSTAR":0.00013128847,"MEAN_MOTION_DOT":1.571e-5,"MEAN_MOTION_DDOT":0},{"OBJECT_NAME":"STARLINK-30908","OBJECT_ID":"2023-180Y","EPOCH":"2025-10-18T22:21:10.523520","MEAN_MOTION":15.02540168,"ECCENTRICITY":0.00012479,"INCLINATION":43.0025,"RA_OF_ASC_NODE":105.1227,"ARG_OF_PERICENTER":265.8946,"MEAN_ANOMALY":94.1754,"EPHEMERIS_TYPE":0,"CLASSIFICATION_TYPE":"U","NORAD_CAT_ID":58424,"ELEMENT_SET_NO":999,"REV_AT_EPOCH":10627,"BSTAR":9.1395857e-5,"MEAN_MOTION_DOT":1.031e-5,"MEAN_MOTION_DDOT":0},{"OBJECT_NAME":"STARLINK-30869","OBJECT_ID":"2023-183A","EPOCH":"2025-10-19T03:53:54.260448","MEAN_MOTION":15.02531379,"ECCENTRICITY":0.00014084,"INCLINATION":43.0027,"RA_OF_ASC_NODE":92.4476,"ARG_OF_PERICENTER":273.1701,"MEAN_ANOMALY":86.898,"EPHEMERIS_TYPE":0,"CLASSIFICATION_TYPE":"U","NORAD_CAT_ID":58437,"ELEMENT_SET_NO":999,"REV_AT_EPOCH":10542,"BSTAR":0.00067374604,"MEAN_MOTION_DOT":8.908e-5,"MEAN_MOTION_DDOT":0},{"OBJECT_NAME":"STARLINK-30969","OBJECT_ID":"2023-183B","EPOCH":"2025-10-18T21:35:46.823136","MEAN_MOTION":15.02543491,"ECCENTRICITY":0.00013587,"INCLINATION":43.0028,"RA_OF_ASC_NODE":93.9174,"ARG_OF_PERICENTER":271.0953,"MEAN_ANOMALY":88.9734,"EPHEMERIS_TYPE":0,"CLASSIFICATION_TYPE":"U","NORAD_CAT_ID":58438,"ELEMENT_SET_NO":999,"REV_AT_EPOCH":10538,"BSTAR":7.2190703e-5,"MEAN_MOTION_DOT":7.72e-6,"MEAN_MOTION_DDOT":0},{"OBJECT_NAME":"STARLINK-30951","OBJECT_ID":"2023-183C","EPOCH":"2025-10-18T23:01:54.933312","MEAN_MOTION":15.02537346,"ECCENTRICITY":0.00014281,"INCLINATION":43.0017,"RA_OF_ASC_NODE":93.5043,"ARG_OF_PERICENTER":272.3071,"MEAN_ANOMALY":87.7608,"EPHEMERIS_TYPE":0,"CLASSIFICATION_TYPE":"U","NORAD_CAT_ID":58439,"ELEMENT_SET_NO":999,"REV_AT_EPOCH":10539,"BSTAR":-7.1202227e-5,"MEAN_MOTION_DOT":-1.165e-5,"MEAN_MOTION_DDOT":0},{"OBJECT_NAME":"STARLINK-30950","OBJECT_ID":"2023-183D","EPOCH":"2025-10-19T06:17:23.000064","MEAN_MOTION":15.27600251,"ECCENTRICITY":9.493e-5,"INCLINATION":43.0015,"RA_OF_ASC_NODE":283.8339,"ARG_OF_PERICENTER":265.9147,"MEAN_ANOMALY":94.1596,"EPHEMERIS_TYPE":0,"CLASSIFICATION_TYPE":"U","NORAD_CAT_ID":58440,"ELEMENT_SET_NO":999,"REV_AT_EPOCH":10740,"BSTAR":0.00013197245,"MEAN_MOTION_DOT":3.373e-5,"MEAN_MOTION_DDOT":0},{"OBJECT_NAME":"STARLINK-30942","OBJECT_ID":"2023-183E","EPOCH":"2025-10-19T06:36:35.153568","MEAN_MOTION":15.02539642,"ECCENTRICITY":0.00013655,"INCLINATION":43.0029,"RA_OF_ASC_NODE":91.5767,"ARG_OF_PERICENTER":271.7706,"MEAN_ANOMALY":88.298,"EPHEMERIS_TYPE":0,"CLASSIFICATION_TYPE":"U","NORAD_CAT_ID":58441,"ELEMENT_SET_NO":999,"REV_AT_EPOCH":10544,"BSTAR":9.665616e-5,"MEAN_MOTION_DOT":1.102e-5,"MEAN_MOTION_DDOT":0},{"OBJECT_NAME":"STARLINK-30959","OBJECT_ID":"2023-183F","EPOCH":"2025-10-18T20:52:37.625952","MEAN_MOTION":15.02539568,"ECCENTRICITY":0.00013174,"INCLINATION":43.003,"RA_OF_ASC_NODE":93.6946,"ARG_OF_PERICENTER":266.6487,"MEAN_ANOMALY":93.4204,"EPHEMERIS_TYPE":0,"CLASSIFICATION_TYPE":"U","NORAD_CAT_ID":58442,"ELEMENT_SET_NO":999,"REV_AT_EPOCH":10538,"BSTAR":4.18188e-5,"MEAN_MOTION_DOT":3.61e-6,"MEAN_MOTION_DDOT":0},{"OBJECT_NAME":"STARLINK-30971","OBJECT_ID":"2023-183G","EPOCH":"2025-10-19T06:41:22.903584","MEAN_MOTION":15.02537094,"ECCENTRICITY":0.00012784,"INCLINATION":43.0029,"RA_OF_ASC_NODE":91.5936,"ARG_OF_PERICENTER":274.2885,"MEAN_ANOMALY":85.7811,"EPHEMERIS_TYPE":0,"CLASSIFICATION_TYPE":"U","NORAD_CAT_ID":58443,"ELEMENT_SET_NO":999,"REV_AT_EPOCH":10544,"BSTAR":1.22645e-5,"MEAN_MOTION_DOT":-3.8e-7,"MEAN_MOTION_DDOT":0},{"OBJECT_NAME":"STARLINK-30963","OBJECT_ID":"2023-183H","EPOCH":"2025-10-19T03:10:43.722336","MEAN_MOTION":15.02568479,"ECCENTRICITY":0.00013861,"INCLINATION":43.0034,"RA_OF_ASC_NODE":92.2197,"ARG_OF_PERICENTER":269.4196,"MEAN_ANOMALY":90.6487,"EPHEMERIS_TYPE":0,"CLASSIFICATION_TYPE":"U","NORAD_CAT_ID":58444,"ELEMENT_SET_NO":999,"REV_AT_EPOCH":10542,"BSTAR":-0.00037224707,"MEAN_MOTION_DOT":-5.233e-5,"MEAN_MOTION_DDOT":0},{"OBJECT_NAME":"STARLINK-30961","OBJECT_ID":"2023-183J","EPOCH":"2025-10-19T03:05:57.091200","MEAN_MOTION":15.02534203,"ECCENTRICITY":0.00011854,"INCLINATION":43.0026,"RA_OF_ASC_NODE":92.1951,"ARG_OF_PERICENTER":272.5039,"MEAN_ANOMALY":87.5668,"EPHEMERIS_TYPE":0,"CLASSIFICATION_TYPE":"U","NORAD_CAT_ID":58445,"ELEMENT_SET_NO":999,"REV_AT_EPOCH":10542,"BSTAR":-6.3044673e-5,"MEAN_MOTION_DOT":-1.055e-5,"MEAN_MOTION_DDOT":0},{"OBJECT_NAME":"STARLINK-30975","OBJECT_ID":"2023-183K","EPOCH":"2025-10-19T08:00:03.000384","MEAN_MOTION":15.02522059,"ECCENTRICITY":0.00014674,"INCLINATION":43.0017,"RA_OF_ASC_NODE":91.6883,"ARG_OF_PERICENTER":262.93,"MEAN_ANOMALY":224.687,"EPHEMERIS_TYPE":0,"CLASSIFICATION_TYPE":"U","NORAD_CAT_ID":58446,"ELEMENT_SET_NO":999,"REV_AT_EPOCH":565,"BSTAR":0.0029192588,"MEAN_MOTION_DOT":0.00039439,"MEAN_MOTION_DDOT":0},{"OBJECT_NAME":"STARLINK-30976","OBJECT_ID":"2023-183L","EPOCH":"2025-10-18T22:04:23.492640","MEAN_MOTION":15.02533607,"ECCENTRICITY":0.00013852,"INCLINATION":43.0028,"RA_OF_ASC_NODE":93.2359,"ARG_OF_PERICENTER":265.2572,"MEAN_ANOMALY":94.8112,"EPHEMERIS_TYPE":0,"CLASSIFICATION_TYPE":"U","NORAD_CAT_ID":58447,"ELEMENT_SET_NO":999,"REV_AT_EPOCH":10539,"BSTAR":0.00010844204,"MEAN_MOTION_DOT":1.261e-5,"MEAN_MOTION_DDOT":0},{"OBJECT_NAME":"STARLINK-30926","OBJECT_ID":"2023-183M","EPOCH":"2025-10-18T21:59:34.179648","MEAN_MOTION":15.02551143,"ECCENTRICITY":0.00014622,"INCLINATION":43.0016,"RA_OF_ASC_NODE":93.1388,"ARG_OF_PERICENTER":268.7988,"MEAN_ANOMALY":91.2686,"EPHEMERIS_TYPE":0,"CLASSIFICATION_TYPE":"U","NORAD_CAT_ID":58448,"ELEMENT_SET_NO":999,"REV_AT_EPOCH":10539,"BSTAR":0.0002875752,"MEAN_MOTION_DOT":3.685e-5,"MEAN_MOTION_DDOT":0},{"OBJECT_NAME":"STARLINK-30943","OBJECT_ID":"2023-183N","EPOCH":"2025-10-18T18:49:02.075520","MEAN_MOTION":15.0254004,"ECCENTRICITY":0.00011365,"INCLINATION":43.0046,"RA_OF_ASC_NODE":68.7251,"ARG_OF_PERICENTER":271.9802,"MEAN_ANOMALY":88.091,"EPHEMERIS_TYPE":0,"CLASSIFICATION_TYPE":"U","NORAD_CAT_ID":58449,"ELEMENT_SET_NO":999,"REV_AT_EPOCH":10566,"BSTAR":6.4183718e-5,"MEAN_MOTION_DOT":6.64e-6,"MEAN_MOTION_DDOT":0}]
