STARLINK-30912          
1 58422U 23180W   25291.51284009  .00000286  00000+0  19917-4 0  9999
2 58422  43.0008 353.2392 0001011 263.6638  96.4099 15.27560097107559
STARLINK-30900          
1 58423U 23180X   25292.21529024  .00001571  00000+0  13129-3 0  9993
2 58423  43.0023 104.7090 0001402 265.8618  94.2064 15.02542668106191
STARLINK-30908          
1 58424U 23180Y   25291.93137180  .00001031  00000+0  91396-4 0  9994
2 58424  43.0025 105.1227 0001247 265.8946  94.1754 15.02540168106279
STARLINK-30869          
1 58437U 23183A   25292.16243357  .00008908  00000+0  67375-3 0  9990
2 58437  43.0027  92.4476 0001408 273.1701  86.8980 15.02531379105428
STARLINK-30969          
1 58438U 23183B   25291.89984749  .00000772  00000+0  72191-4 0  9991
2 58438  43.0028  93.9174 0001358 271.0953  88.9734 15.02543491105384
STARLINK-30951          
1 58439U 23183C   25291.95966358 -.00001165  00000+0 -71202-4 0  9996
2 58439  43.0017  93.5043 0001428 272.3071  87.7608 15.02537346105397
STARLINK-30950          
1 58440U 23183D   25292.26207176  .00003373  00000+0  13197-3 0  9998
2 58440  43.0015 283.8339 0000949 265.9147  94.1596 15.27600251107403
STARLINK-30942          
1 58441U 23183E   25292.27540687  .00001102  00000+0  96656-4 0  9997
2 58441  43.0029  91.5767 0001365 271.7706  88.2980 15.02539642105448
STARLINK-30959          
1 58442U 23183F   25291.86987993  .00000361  00000+0  41819-4 0  9994
2 58442  43.0030  93.6946 0001317 266.6487  93.4204 15.02539568105386
STARLINK-30971          
1 58443U 23183G   25292.27873731 -.00000038  00000+0  12265-4 0  9990
2 58443  43.0029  91.5936 0001278 274.2885  85.7811 15.02537094105441
STARLINK-30963          
1 58444U 23183H   25292.13245049 -.00005233  00000+0 -37225-3 0  9996
2 58444  43.0034  92.2197 0001386 269.4196  90.6487 15.02568479105429
STARLINK-30961          
1 58445U 23183J   25292.12913300 -.00001055  00000+0 -63045-4 0  9996
2 58445  43.0026  92.1951 0001185 272.5039  87.5668 15.02534203105420
STARLINK-30975          
1 58446U 23183K   25292.33336806  .00039439  00000+0  29193-2 0  9999
2 58446  43.0017  91.6883 0001467 262.9300 224.6870 15.02522059  5655
STARLINK-30976          
1 58447U 23183L   25291.91971635  .00001261  00000+0  10844-3 0  9994
2 58447  43.0028  93.2359 0001385 265.2572  94.8112 15.02533607105399
STARLINK-30926          
1 58448U 23183M   25291.91636782  .00003685  00000+0  28758-3 0  9991
2 58448  43.0016  93.1388 0001462 268.7988  91.2686 15.02551143105395
STARLINK-30943          
1 58449U 23183N   25291.78405180  .00000664  00000+0  64184-4 0  9991
2 58449  43.0046  68.7251 0001136 271.9802  88.0910 15.02540040105663
